YAOGAN-35 05B           
1 53761U 22109B   26068.88795111  .00017789  00000+0  51483-3 0  9993
2 53761  34.9770 227.0873 0007377 346.2223  13.8293 15.34684086195588
KUIPER-00268            
1 67790U 26030AC  26068.62668427  .00036094  00000+0  10186-2 0  9992
2 67790  51.8839 219.4073 0002948  35.5768 324.5415 15.36041233  5083
